0 COSMOS 2251 DEB
1 34345U 93036PT  13281.64102091  .00017625  00000-0  15781-2 0  4347
2 34345 074.0425 347.1958 0160366 096.1329 022.6927 14.86394915248352
0 COSMOS 2251 DEB
1 34345U 93036PT  13282.38268095  .00031621  00000-0  28210-2 0  4350
2 34345 074.0425 345.7196 0160167 094.4315 031.4046 14.86451398248466
0 COSMOS 2251 DEB
1 34345U 93036PT  13283.04570426  .00025499  00000-0  22767-2 0  4366
2 34345 074.0426 344.4000 0159995 092.8955 339.4634 14.86479230248566
0 COSMOS 2251 DEB
1 34345U 93036PT  13283.98618797  .00023392  00000-0  20873-2 0  4370
2 34345 074.0426 342.5281 0159995 090.7524 332.3935 14.86515906248708
0 COSMOS 2251 DEB
1 34345U 93036PT  13286.47623962  .00018601  00000-0  16593-2 0  4390
2 34345 074.0428 337.5722 0159678 085.0407 338.3224 14.86600628249073
0 COSMOS 2251 DEB
1 34345U 93036PT  13287.49610985  .00020949  00000-0  18665-2 0  4406
2 34345 074.0427 335.5423 0159621 082.7159 036.5269 14.86632005249221
0 COSMOS 2251 DEB
1 34345U 93036PT  13287.95670130  .00034821  00000-0  30935-2 0  4414
2 34345 074.0426 334.6256 0159490 081.6580 341.6059 14.86662604249296
0 COSMOS 2251 DEB
1 34345U 93036PT  13289.10352910  .00029557  00000-0  26242-2 0  4423
2 34345 074.0420 332.3425 0159357 079.0334 359.6173 14.86731145249465
0 COSMOS 2251 DEB
1 34345U 93036PT  13290.17576731  .00026753  00000-0  23748-2 0  4435
2 34345 074.0416 330.2077 0159240 076.5993 338.5906 14.86769388249622
0 COSMOS 2251 DEB
1 34345U 93036PT  13291.45608917  .00025651  00000-0  22748-2 0  4445
2 34345 074.0412 327.6582 0159124 073.6735 351.5461 14.86825443249819
0 COSMOS 2251 DEB
1 34345U 93036PT  13292.47432816  .00023700  00000-0  21006-2 0  4451
2 34345 074.0409 325.6303 0159047 071.3463 041.8742 14.86867734249967
0 COSMOS 2251 DEB
1 34345U 93036PT  13293.48340640  .00025767  00000-0  22810-2 0  4466
2 34345 074.0408 323.6203 0158993 069.0655 043.2929 14.86904474250114
0 COSMOS 2251 DEB
1 34345U 93036PT  13294.50155432  .00029865  00000-0  26400-2 0  4476
2 34345 074.0409 321.5923 0158909 066.7701 093.3986 14.86940765250273
0 COSMOS 2251 DEB
1 34345U 93036PT  13295.50208824  .00031994  00000-0  28242-2 0  4484
2 34345 074.0412 319.5992 0158830 064.4975 049.3761 14.86988716250417
